[{"OBJECT_NAME":"ONEWEB-0212","OBJECT_ID":"2021-045AA","EPOCH":"2025-07-30T20:49:28.873920","MEAN_MOTION":13.15549345,"ECCENTRICITY":0.000185,"INCLINATION":87.9078,"RA_OF_ASC_NODE":323.2552,"ARG_OF_PERICENTER":98.3053,"MEAN_ANOMALY":261.8287,"EPHEMERIS_TYPE":0,"CLASSIFICATION_TYPE":"U","NORAD_CAT_ID":48791,"ELEMENT_SET_NO":999,"REV_AT_EPOCH":20332,"BSTAR":-0.00025312,"MEAN_MOTION_DOT":-8.2e-7,"MEAN_MOTION_DDOT":0},{"OBJECT_NAME":"ONEWEB-0227","OBJECT_ID":"2021-045AB","EPOCH":"2025-07-30T20:48:19.249344","MEAN_MOTION":13.15548112,"ECCENTRICITY":0.0001968,"INCLINATION":87.908,"RA_OF_ASC_NODE":323.2751,"ARG_OF_PERICENTER":94.6414,"MEAN_ANOMALY":265.4941,"EPHEMERIS_TYPE":0,"CLASSIFICATION_TYPE":"U","NORAD_CAT_ID":48792,"ELEMENT_SET_NO":999,"REV_AT_EPOCH":20326,"BSTAR":-0.0002881,"MEAN_MOTION_DOT":-9.6e-7,"MEAN_MOTION_DDOT":0},{"OBJECT_NAME":"ONEWEB-0226","OBJECT_ID":"2021-045AC","EPOCH":"2025-07-30T13:21:06.525792","MEAN_MOTION":13.15550314,"ECCENTRICITY":0.0002293,"INCLINATION":87.9085,"RA_OF_ASC_NODE":323.341,"ARG_OF_PERICENTER":95.033,"MEAN_ANOMALY":265.1062,"EPHEMERIS_TYPE":0,"CLASSIFICATION_TYPE":"U","NORAD_CAT_ID":48793,"ELEMENT_SET_NO":999,"REV_AT_EPOCH":20206,"BSTAR":6.1426e-5,"MEAN_MOTION_DOT":3.6e-7,"MEAN_MOTION_DDOT":0},{"OBJECT_NAME":"ONEWEB-0224","OBJECT_ID":"2021-045AD","EPOCH":"2025-07-30T14:18:10.029024","MEAN_MOTION":13.15547187,"ECCENTRICITY":0.0001563,"INCLINATION":87.908,"RA_OF_ASC_NODE":323.3706,"ARG_OF_PERICENTER":68.5529,"MEAN_ANOMALY":291.5768,"EPHEMERIS_TYPE":0,"CLASSIFICATION_TYPE":"U","NORAD_CAT_ID":48794,"ELEMENT_SET_NO":999,"REV_AT_EPOCH":20311,"BSTAR":0.0003682,"MEAN_MOTION_DOT":1.51e-6,"MEAN_MOTION_DDOT":0},{"OBJECT_NAME":"ONEWEB-0233","OBJECT_ID":"2021-045AE","EPOCH":"2025-07-30T14:24:47.237472","MEAN_MOTION":13.15550015,"ECCENTRICITY":0.0002051,"INCLINATION":87.9086,"RA_OF_ASC_NODE":323.3778,"ARG_OF_PERICENTER":88.9011,"MEAN_ANOMALY":271.2355,"EPHEMERIS_TYPE":0,"CLASSIFICATION_TYPE":"U","NORAD_CAT_ID":48795,"ELEMENT_SET_NO":999,"REV_AT_EPOCH":20201,"BSTAR":0.00044231,"MEAN_MOTION_DOT":1.79e-6,"MEAN_MOTION_DDOT":0},{"OBJECT_NAME":"ONEWEB-0190","OBJECT_ID":"2021-045AF","EPOCH":"2025-07-30T14:06:44.879616","MEAN_MOTION":13.15547687,"ECCENTRICITY":0.0002507,"INCLINATION":87.9086,"RA_OF_ASC_NODE":323.345,"ARG_OF_PERICENTER":83.6085,"MEAN_ANOMALY":276.5331,"EPHEMERIS_TYPE":0,"CLASSIFICATION_TYPE":"U","NORAD_CAT_ID":48796,"ELEMENT_SET_NO":999,"REV_AT_EPOCH":20208,"BSTAR":0.00018219,"MEAN_MOTION_DOT":8.1e-7,"MEAN_MOTION_DDOT":0},{"OBJECT_NAME":"ONEWEB-0236","OBJECT_ID":"2021-045AG","EPOCH":"2025-07-30T14:31:50.124000","MEAN_MOTION":13.1554741,"ECCENTRICITY":0.0001763,"INCLINATION":87.9093,"RA_OF_ASC_NODE":323.3509,"ARG_OF_PERICENTER":98.1347,"MEAN_ANOMALY":261.9984,"EPHEMERIS_TYPE":0,"CLASSIFICATION_TYPE":"U","NORAD_CAT_ID":48797,"ELEMENT_SET_NO":999,"REV_AT_EPOCH":20197,"BSTAR":0.00049922,"MEAN_MOTION_DOT":2.01e-6,"MEAN_MOTION_DDOT":0},{"OBJECT_NAME":"ONEWEB-0248","OBJECT_ID":"2021-045AH","EPOCH":"2025-07-30T13:00:34.202592","MEAN_MOTION":13.155518,"ECCENTRICITY":0.0001985,"INCLINATION":87.9086,"RA_OF_ASC_NODE":323.318,"ARG_OF_PERICENTER":77.9011,"MEAN_ANOMALY":282.2341,"EPHEMERIS_TYPE":0,"CLASSIFICATION_TYPE":"U","NORAD_CAT_ID":48798,"ELEMENT_SET_NO":999,"REV_AT_EPOCH":20212,"BSTAR":0.00036075,"MEAN_MOTION_DOT":1.49e-6,"MEAN_MOTION_DDOT":0},{"OBJECT_NAME":"ONEWEB-0225","OBJECT_ID":"2021-045AJ","EPOCH":"2025-07-30T13:32:29.732064","MEAN_MOTION":13.15546758,"ECCENTRICITY":0.0002358,"INCLINATION":87.9089,"RA_OF_ASC_NODE":323.3453,"ARG_OF_PERICENTER":85.6605,"MEAN_ANOMALY":274.4795,"EPHEMERIS_TYPE":0,"CLASSIFICATION_TYPE":"U","NORAD_CAT_ID":48799,"ELEMENT_SET_NO":999,"REV_AT_EPOCH":20213,"BSTAR":-0.00015981,"MEAN_MOTION_DOT":-4.7e-7,"MEAN_MOTION_DDOT":0},{"OBJECT_NAME":"ONEWEB-0215","OBJECT_ID":"2021-045AK","EPOCH":"2025-07-30T07:20:35.835648","MEAN_MOTION":13.15547956,"ECCENTRICITY":0.0002232,"INCLINATION":87.9082,"RA_OF_ASC_NODE":323.3474,"ARG_OF_PERICENTER":80.2648,"MEAN_ANOMALY":279.8734,"EPHEMERIS_TYPE":0,"CLASSIFICATION_TYPE":"U","NORAD_CAT_ID":48800,"ELEMENT_SET_NO":999,"REV_AT_EPOCH":20197,"BSTAR":0.00055415,"MEAN_MOTION_DOT":2.21e-6,"MEAN_MOTION_DDOT":0},{"OBJECT_NAME":"ONEWEB-0216","OBJECT_ID":"2021-045AL","EPOCH":"2025-07-30T20:20:56.494176","MEAN_MOTION":13.15548136,"ECCENTRICITY":0.0002122,"INCLINATION":87.9079,"RA_OF_ASC_NODE":323.2851,"ARG_OF_PERICENTER":100.4031,"MEAN_ANOMALY":259.7338,"EPHEMERIS_TYPE":0,"CLASSIFICATION_TYPE":"U","NORAD_CAT_ID":48801,"ELEMENT_SET_NO":999,"REV_AT_EPOCH":20317,"BSTAR":0.00014843,"MEAN_MOTION_DOT":6.9e-7,"MEAN_MOTION_DDOT":0},{"OBJECT_NAME":"ONEWEB-0239","OBJECT_ID":"2021-045AM","EPOCH":"2025-07-30T20:27:47.721888","MEAN_MOTION":13.15547465,"ECCENTRICITY":0.000203,"INCLINATION":87.9086,"RA_OF_ASC_NODE":323.2965,"ARG_OF_PERICENTER":74.3545,"MEAN_ANOMALY":285.7809,"EPHEMERIS_TYPE":0,"CLASSIFICATION_TYPE":"U","NORAD_CAT_ID":48802,"ELEMENT_SET_NO":999,"REV_AT_EPOCH":20323,"BSTAR":0.0001831,"MEAN_MOTION_DOT":8.2e-7,"MEAN_MOTION_DDOT":0},{"OBJECT_NAME":"ONEWEB-0249","OBJECT_ID":"2021-060A","EPOCH":"2025-07-30T14:02:19.793184","MEAN_MOTION":13.16596136,"ECCENTRICITY":0.0001919,"INCLINATION":87.9049,"RA_OF_ASC_NODE":292.8853,"ARG_OF_PERICENTER":96.9877,"MEAN_ANOMALY":263.1472,"EPHEMERIS_TYPE":0,"CLASSIFICATION_TYPE":"U","NORAD_CAT_ID":48967,"ELEMENT_SET_NO":999,"REV_AT_EPOCH":19729,"BSTAR":0.00021658,"MEAN_MOTION_DOT":9.6e-7,"MEAN_MOTION_DDOT":0},{"OBJECT_NAME":"ONEWEB-0250","OBJECT_ID":"2021-060B","EPOCH":"2025-07-30T14:03:26.309088","MEAN_MOTION":13.25810778,"ECCENTRICITY":0.0001407,"INCLINATION":87.9048,"RA_OF_ASC_NODE":291.6947,"ARG_OF_PERICENTER":70.6461,"MEAN_ANOMALY":289.4827,"EPHEMERIS_TYPE":0,"CLASSIFICATION_TYPE":"U","NORAD_CAT_ID":48968,"ELEMENT_SET_NO":999,"REV_AT_EPOCH":19760,"BSTAR":0.00016818,"MEAN_MOTION_DOT":8.7e-7,"MEAN_MOTION_DDOT":0},{"OBJECT_NAME":"ONEWEB-0252","OBJECT_ID":"2021-060D","EPOCH":"2025-07-30T14:47:56.065632","MEAN_MOTION":13.1659516,"ECCENTRICITY":0.0002278,"INCLINATION":87.9049,"RA_OF_ASC_NODE":292.8721,"ARG_OF_PERICENTER":104.2267,"MEAN_ANOMALY":255.9117,"EPHEMERIS_TYPE":0,"CLASSIFICATION_TYPE":"U","NORAD_CAT_ID":48970,"ELEMENT_SET_NO":999,"REV_AT_EPOCH":19734,"BSTAR":-3.6965e-5,"MEAN_MOTION_DOT":-1.0e-8,"MEAN_MOTION_DDOT":0},{"OBJECT_NAME":"ONEWEB-0253","OBJECT_ID":"2021-060E","EPOCH":"2025-07-30T14:31:58.545408","MEAN_MOTION":13.16595324,"ECCENTRICITY":0.0002124,"INCLINATION":87.9046,"RA_OF_ASC_NODE":292.8781,"ARG_OF_PERICENTER":93.3309,"MEAN_ANOMALY":266.8065,"EPHEMERIS_TYPE":0,"CLASSIFICATION_TYPE":"U","NORAD_CAT_ID":48971,"ELEMENT_SET_NO":999,"REV_AT_EPOCH":19727,"BSTAR":0.00011168,"MEAN_MOTION_DOT":5.6e-7,"MEAN_MOTION_DDOT":0},{"OBJECT_NAME":"ONEWEB-0254","OBJECT_ID":"2021-060F","EPOCH":"2025-07-30T18:24:32.539392","MEAN_MOTION":13.16595035,"ECCENTRICITY":0.0002015,"INCLINATION":87.9051,"RA_OF_ASC_NODE":292.8316,"ARG_OF_PERICENTER":85.4673,"MEAN_ANOMALY":274.6688,"EPHEMERIS_TYPE":0,"CLASSIFICATION_TYPE":"U","NORAD_CAT_ID":48972,"ELEMENT_SET_NO":999,"REV_AT_EPOCH":19857,"BSTAR":0.00023736,"MEAN_MOTION_DOT":1.04e-6,"MEAN_MOTION_DDOT":0}]
