ONEWEB-0212             
1 48791U 21045AA  25211.86769530 -.00000082  00000+0 -25312-3 0  9993
2 48791  87.9078 323.2552 0001850  98.3053 261.8287 13.15549345203328
ONEWEB-0227             
1 48792U 21045AB  25211.86688946 -.00000096  00000+0 -28810-3 0  9996
2 48792  87.9080 323.2751 0001968  94.6414 265.4941 13.15548112203264
ONEWEB-0226             
1 48793U 21045AC  25211.55632553  .00000036  00000+0  61426-4 0  9999
2 48793  87.9085 323.3410 0002293  95.0330 265.1062 13.15550314202062
ONEWEB-0224             
1 48794U 21045AD  25211.59594941  .00000151  00000+0  36820-3 0  9999
2 48794  87.9080 323.3706 0001563  68.5529 291.5768 13.15547187203117
ONEWEB-0233             
1 48795U 21045AE  25211.60054673  .00000179  00000+0  44231-3 0  9990
2 48795  87.9086 323.3778 0002051  88.9011 271.2355 13.15550015202017
ONEWEB-0190             
1 48796U 21045AF  25211.58801944  .00000081  00000+0  18219-3 0  9998
2 48796  87.9086 323.3450 0002507  83.6085 276.5331 13.15547687202084
ONEWEB-0236             
1 48797U 21045AG  25211.60544125  .00000201  00000+0  49922-3 0  9996
2 48797  87.9093 323.3509 0001763  98.1347 261.9984 13.15547410201976
ONEWEB-0248             
1 48798U 21045AH  25211.54206253  .00000149  00000+0  36075-3 0  9993
2 48798  87.9086 323.3180 0001985  77.9011 282.2341 13.15551800202122
ONEWEB-0225             
1 48799U 21045AJ  25211.56423301 -.00000047  00000+0 -15981-3 0  9993
2 48799  87.9089 323.3453 0002358  85.6605 274.4795 13.15546758202132
ONEWEB-0215             
1 48800U 21045AK  25211.30597032  .00000221  00000+0  55415-3 0  9999
2 48800  87.9082 323.3474 0002232  80.2648 279.8734 13.15547956201974
ONEWEB-0216             
1 48801U 21045AL  25211.84787609  .00000069  00000+0  14843-3 0  9990
2 48801  87.9079 323.2851 0002122 100.4031 259.7338 13.15548136203170
ONEWEB-0239             
1 48802U 21045AM  25211.85263567  .00000082  00000+0  18310-3 0  9992
2 48802  87.9086 323.2965 0002030  74.3545 285.7809 13.15547465203235
ONEWEB-0249             
1 48967U 21060A   25211.58495131  .00000096  00000+0  21658-3 0  9999
2 48967  87.9049 292.8853 0001919  96.9877 263.1472 13.16596136197290
ONEWEB-0250             
1 48968U 21060B   25211.58572117  .00000087  00000+0  16818-3 0  9992
2 48968  87.9048 291.6947 0001407  70.6461 289.4827 13.25810778197602
ONEWEB-0252             
1 48970U 21060D   25211.61662113 -.00000001  00000+0 -36965-4 0  9999
2 48970  87.9049 292.8721 0002278 104.2267 255.9117 13.16595160197340
ONEWEB-0253             
1 48971U 21060E   25211.60553872  .00000056  00000+0  11168-3 0  9995
2 48971  87.9046 292.8781 0002124  93.3309 266.8065 13.16595324197276
ONEWEB-0254             
1 48972U 21060F   25211.76704328  .00000104  00000+0  23736-3 0  9995
2 48972  87.9051 292.8316 0002015  85.4673 274.6688 13.16595035198573
